start=new Date('2021-11-28T00:00:00.000Z').valueOf();
sats=[{"PERIOD":"95.592","ARG_OF_PERICENTER":"81.2873","EPOCH":"2021-11-27T14:47:46.364640","MEAN_MOTION_DOT":"0.00001675","REV_AT_EPOCH":"6153","TLE_LINE1":"1 46691U 20073X   21331.61650885  .00001675  00000-0  13133-3 0  9990","MEAN_ELEMENT_THEORY":"SGP4","RCS_SIZE":"LARGE","INCLINATION":"53.0568","OBJECT_ID":"2020-073X","EPHEMERIS_TYPE":"0","TLE_LINE2":"2 46691  53.0568  58.5326 0001246  81.2873 278.8257 15.06397028 61531","REF_FRAME":"TEME","APOAPSIS":"548.086","CENTER_NAME":"EARTH","PERIAPSIS":"546.360","LAUNCH_DATE":"2020-10-18","GP_ID":"190621844","MEAN_MOTION_DDOT":"0.0000000000000","ECCENTRICITY":"0.00012460","ELEMENT_SET_NO":"999","OBJECT_TYPE":"PAYLOAD","BSTAR":"0.00013133000000","SITE":"AFETR","TIME_SYSTEM":"UTC","OBJECT_NAME":"STARLINK-1790","FILE":"3225675","NORAD_CAT_ID":"46691","RA_OF_ASC_NODE":"58.5326","COUNTRY_CODE":"US","DECAY_DATE":null,"MEAN_ANOMALY":"278.8257","MEAN_MOTION":"15.06397028","CLASSIFICATION_TYPE":"U","SEMIMAJOR_AXIS":"6925.358"},{"OBJECT_ID":"2020-073Y","INCLINATION":"53.0547","CENTER_NAME":"EARTH","PERIAPSIS":"546.222","APOAPSIS":"548.222","REF_FRAME":"TEME","EPHEMERIS_TYPE":"0","TLE_LINE2":"2 46692  53.0547  72.3977 0001444  77.4188 282.6963 15.06397253 61369","ARG_OF_PERICENTER":"77.4188","PERIOD":"95.592","EPOCH":"2021-11-27T20:49:21.408960","RCS_SIZE":"LARGE","TLE_LINE1":"1 46692U 20073Y   21331.86760890  .00000041  00000-0  21638-4 0  9992","MEAN_ELEMENT_THEORY":"SGP4","REV_AT_EPOCH":"6136","MEAN_MOTION_DOT":"0.00000041","NORAD_CAT_ID":"46692","FILE":"3225675","RA_OF_ASC_NODE":"72.3977","SEMIMAJOR_AXIS":"6925.357","CLASSIFICATION_TYPE":"U","MEAN_ANOMALY":"282.6963","MEAN_MOTION":"15.06397253","DECAY_DATE":null,"COUNTRY_CODE":"US","ELEMENT_SET_NO":"999","ECCENTRICITY":"0.00014440","LAUNCH_DATE":"2020-10-18","GP_ID":"190622094","MEAN_MOTION_DDOT":"0.0000000000000","TIME_SYSTEM":"UTC","OBJECT_NAME":"STARLINK-1791","SITE":"AFETR","OBJECT_TYPE":"PAYLOAD","BSTAR":"0.00002163800000"},{"PERIAPSIS":"546.251","CENTER_NAME":"EARTH","REF_FRAME":"TEME","APOAPSIS":"548.223","TLE_LINE2":"2 46693  53.0550  59.6977 0001424  73.4647 286.6498 15.06392395 61499","EPHEMERIS_TYPE":"0","OBJECT_ID":"2020-073Z","INCLINATION":"53.0550","RCS_SIZE":"LARGE","MEAN_ELEMENT_THEORY":"SGP4","TLE_LINE1":"1 46693U 20073Z   21331.35480027 -.00000320  00000-0 -25721-5 0  9998","REV_AT_EPOCH":"6149","MEAN_MOTION_DOT":"-0.00000320","EPOCH":"2021-11-27T08:30:54.743328","ARG_OF_PERICENTER":"73.4647","PERIOD":"95.593","CLASSIFICATION_TYPE":"U","SEMIMAJOR_AXIS":"6925.372","MEAN_MOTION":"15.06392395","MEAN_ANOMALY":"286.6498","DECAY_DATE":null,"COUNTRY_CODE":"US","FILE":"3225405","RA_OF_ASC_NODE":"59.6977","NORAD_CAT_ID":"46693","OBJECT_NAME":"STARLINK-1792","TIME_SYSTEM":"UTC","SITE":"AFETR","BSTAR":"-0.00000257210000","OBJECT_TYPE":"PAYLOAD","ELEMENT_SET_NO":"999","ECCENTRICITY":"0.00014240","MEAN_MOTION_DDOT":"0.0000000000000","GP_ID":"190593045","LAUNCH_DATE":"2020-10-18"},{"REV_AT_EPOCH":"6183","MEAN_MOTION_DOT":"-0.00001616","RCS_SIZE":"LARGE","MEAN_ELEMENT_THEORY":"SGP4","TLE_LINE1":"1 46694U 20073AA  21331.71049953 -.00001616  00000-0 -89541-4 0  9996","EPOCH":"2021-11-27T17:03:07.159392","PERIOD":"95.593","ARG_OF_PERICENTER":"337.7816","TLE_LINE2":"2 46694  53.0554  38.1181 0003863 337.7816  22.3005 15.06386270 61838","EPHEMERIS_TYPE":"0","PERIAPSIS":"544.580","CENTER_NAME":"EARTH","REF_FRAME":"TEME","APOAPSIS":"549.931","INCLINATION":"53.0554","OBJECT_ID":"2020-073AA","BSTAR":"-0.00008954100000","OBJECT_TYPE":"PAYLOAD","TIME_SYSTEM":"UTC","OBJECT_NAME":"STARLINK-1793","SITE":"AFETR","MEAN_MOTION_DDOT":"0.0000000000000","GP_ID":"190623588","LAUNCH_DATE":"2020-10-18","ELEMENT_SET_NO":"999","ECCENTRICITY":"0.00038630","DECAY_DATE":null,"COUNTRY_CODE":"US","CLASSIFICATION_TYPE":"U","SEMIMAJOR_AXIS":"6925.391","MEAN_MOTION":"15.06386270","MEAN_ANOMALY":"22.3005","FILE":"3225675","NORAD_CAT_ID":"46694","RA_OF_ASC_NODE":"38.1181"},{"PERIOD":"95.592","ARG_OF_PERICENTER":"77.2035","EPOCH":"2021-11-27T14:18:34.247808","TLE_LINE1":"1 46696U 20073AC  21331.59622972 -.00000521  00000-0 -16102-4 0  9999","MEAN_ELEMENT_THEORY":"SGP4","RCS_SIZE":"LARGE","MEAN_MOTION_DOT":"-0.00000521","REV_AT_EPOCH":"6229","OBJECT_ID":"2020-073AC","INCLINATION":"53.0558","REF_FRAME":"TEME","APOAPSIS":"548.004","CENTER_NAME":"EARTH","PERIAPSIS":"546.425","EPHEMERIS_TYPE":"0","TLE_LINE2":"2 46696  53.0558  38.6064 0001140  77.2035 282.9081 15.06399535 62291","ECCENTRICITY":"0.00011400","ELEMENT_SET_NO":"999","LAUNCH_DATE":"2020-10-18","GP_ID":"190598853","MEAN_MOTION_DDOT":"0.0000000000000","SITE":"AFETR","TIME_SYSTEM":"UTC","OBJECT_NAME":"STARLINK-1795","OBJECT_TYPE":"PAYLOAD","BSTAR":"-0.00001610200000","RA_OF_ASC_NODE":"38.6064","FILE":"3225560","NORAD_CAT_ID":"46696","MEAN_ANOMALY":"282.9081","MEAN_MOTION":"15.06399535","SEMIMAJOR_AXIS":"6925.350","CLASSIFICATION_TYPE":"U","COUNTRY_CODE":"US","DECAY_DATE":null},{"MEAN_MOTION_DOT":"-0.00009993","REV_AT_EPOCH":"6152","TLE_LINE1":"1 46698U 20073AE  21331.52065255 -.00009993  00000-0 -65211-3 0  9995","MEAN_ELEMENT_THEORY":"SGP4","RCS_SIZE":"LARGE","ARG_OF_PERICENTER":"64.7856","PERIOD":"95.589","EPOCH":"2021-11-27T12:29:44.380320","EPHEMERIS_TYPE":"0","TLE_LINE2":"2 46698  53.0550  58.9592 0000704  64.7856 295.3206 15.06444727 61529","REF_FRAME":"TEME","APOAPSIS":"547.564","CENTER_NAME":"EARTH","PERIAPSIS":"546.589","INCLINATION":"53.0550","OBJECT_ID":"2020-073AE","OBJECT_TYPE":"PAYLOAD","BSTAR":"-0.00065211000000","SITE":"AFETR","TIME_SYSTEM":"UTC","OBJECT_NAME":"STARLINK-1797","GP_ID":"190592787","LAUNCH_DATE":"2020-10-18","MEAN_MOTION_DDOT":"0.0000000000000","ECCENTRICITY":"0.00007040","ELEMENT_SET_NO":"999","COUNTRY_CODE":"US","DECAY_DATE":null,"MEAN_ANOMALY":"295.3206","MEAN_MOTION":"15.06444727","SEMIMAJOR_AXIS":"6925.211","CLASSIFICATION_TYPE":"U","NORAD_CAT_ID":"46698","FILE":"3225405","RA_OF_ASC_NODE":"58.9592"},{"PERIOD":"95.592","ARG_OF_PERICENTER":"83.9824","EPOCH":"2021-11-27T12:35:03.434784","REV_AT_EPOCH":"6152","MEAN_MOTION_DOT":"-0.00000068","RCS_SIZE":"LARGE","TLE_LINE1":"1 46699U 20073AF  21331.52434531 -.00000068  00000-0  14323-4 0  9995","MEAN_ELEMENT_THEORY":"SGP4","INCLINATION":"53.0570","OBJECT_ID":"2020-073AF","EPHEMERIS_TYPE":"0","TLE_LINE2":"2 46699  53.0570  58.9454 0001217  83.9824 276.1304 15.06403166 61525","CENTER_NAME":"EARTH","PERIAPSIS":"546.361","APOAPSIS":"548.047","REF_FRAME":"TEME","LAUNCH_DATE":"2020-10-18","GP_ID":"190593545","MEAN_MOTION_DDOT":"0.0000000000000","ELEMENT_SET_NO":"999","ECCENTRICITY":"0.00012170","OBJECT_TYPE":"PAYLOAD","BSTAR":"0.00001432300000","TIME_SYSTEM":"UTC","OBJECT_NAME":"STARLINK-1799","SITE":"AFETR","NORAD_CAT_ID":"46699","FILE":"3225405","RA_OF_ASC_NODE":"58.9454","DECAY_DATE":null,"COUNTRY_CODE":"US","CLASSIFICATION_TYPE":"U","SEMIMAJOR_AXIS":"6925.339","MEAN_ANOMALY":"276.1304","MEAN_MOTION":"15.06403166"},{"SITE":"AFETR","TIME_SYSTEM":"UTC","OBJECT_NAME":"STARLINK-1800","BSTAR":"0.00001929400000","OBJECT_TYPE":"PAYLOAD","ECCENTRICITY":"0.00021140","ELEMENT_SET_NO":"999","MEAN_MOTION_DDOT":"0.0000000000000","GP_ID":"190623089","LAUNCH_DATE":"2020-10-18","MEAN_MOTION":"15.06393539","MEAN_ANOMALY":"311.7635","CLASSIFICATION_TYPE":"U","SEMIMAJOR_AXIS":"6925.368","COUNTRY_CODE":"US","DECAY_DATE":null,"NORAD_CAT_ID":"46700","FILE":"3225675","RA_OF_ASC_NODE":"73.3253","MEAN_ELEMENT_THEORY":"SGP4","TLE_LINE1":"1 46700U 20073AG  21331.66119927  .00000006  00000-0  19294-4 0  9995","RCS_SIZE":"LARGE","MEAN_MOTION_DOT":"0.00000006","REV_AT_EPOCH":"6133","EPOCH":"2021-11-27T15:52:07.616928","ARG_OF_PERICENTER":"48.3534","PERIOD":"95.593","REF_FRAME":"TEME","APOAPSIS":"548.697","PERIAPSIS":"545.769","CENTER_NAME":"EARTH","TLE_LINE2":"2 46700  53.0535  73.3253 0002114  48.3534 311.7635 15.06393539 61331","EPHEMERIS_TYPE":"0","OBJECT_ID":"2020-073AG","INCLINATION":"53.0535"},{"CLASSIFICATION_TYPE":"U","SEMIMAJOR_AXIS":"6925.342","MEAN_MOTION":"15.06402154","MEAN_ANOMALY":"291.4888","DECAY_DATE":null,"COUNTRY_CODE":"US","NORAD_CAT_ID":"46701","FILE":"3225405","RA_OF_ASC_NODE":"59.6592","TIME_SYSTEM":"UTC","OBJECT_NAME":"STARLINK-1801","SITE":"AFETR","BSTAR":"0.00007969000000","OBJECT_TYPE":"PAYLOAD","ELEMENT_SET_NO":"999","ECCENTRICITY":"0.00011820","MEAN_MOTION_DDOT":"0.0000000000000","GP_ID":"190594013","LAUNCH_DATE":"2020-10-18","PERIAPSIS":"546.388","CENTER_NAME":"EARTH","REF_FRAME":"TEME","APOAPSIS":"548.026","TLE_LINE2":"2 46701  53.0557  59.6592 0001182  68.6227 291.4888 15.06402154 61504","EPHEMERIS_TYPE":"0","OBJECT_ID":"2020-073AH","INCLINATION":"53.0557","RCS_SIZE":"LARGE","MEAN_ELEMENT_THEORY":"SGP4","TLE_LINE1":"1 46701U 20073AH  21331.36217154  .00000906  00000-0  79690-4 0  9999","REV_AT_EPOCH":"6150","MEAN_MOTION_DOT":"0.00000906","EPOCH":"2021-11-27T08:41:31.621056","PERIOD":"95.592","ARG_OF_PERICENTER":"68.6227"},{"ELEMENT_SET_NO":"999","ECCENTRICITY":"0.00003160","MEAN_MOTION_DDOT":"0.0000000000000","GP_ID":"190622095","LAUNCH_DATE":"2020-10-18","TIME_SYSTEM":"UTC","OBJECT_NAME":"STARLINK-1802","SITE":"AFETR","BSTAR":"0.00006183700000","OBJECT_TYPE":"PAYLOAD","NORAD_CAT_ID":"46702","FILE":"3225675","RA_OF_ASC_NODE":"37.5378","CLASSIFICATION_TYPE":"U","SEMIMAJOR_AXIS":"6925.354","MEAN_MOTION":"15.06398156","MEAN_ANOMALY":"260.2941","DECAY_DATE":null,"COUNTRY_CODE":"US","EPOCH":"2021-11-27T20:08:53.107584","PERIOD":"95.592","ARG_OF_PERICENTER":"99.8083","RCS_SIZE":"LARGE","MEAN_ELEMENT_THEORY":"SGP4","TLE_LINE1":"1 46702U 20073AJ  21331.83950356  .00000640  00000-0  61837-4 0  9999","REV_AT_EPOCH":"6185","MEAN_MOTION_DOT":"0.00000640","OBJECT_ID":"2020-073AJ","INCLINATION":"53.0549","PERIAPSIS":"547.000","CENTER_NAME":"EARTH","REF_FRAME":"TEME","APOAPSIS":"547.438","TLE_LINE2":"2 46702  53.0549  37.5378 0000316  99.8083 260.2941 15.06398156 61855","EPHEMERIS_TYPE":"0"}];
